ONEWEB-0159             
1 48062U 21025W   25200.52338819  .00000100  00000+0  23931-3 0  9999
2 48062  87.8956  26.2920 0001618  84.7793 275.3521 13.13468708209939
ONEWEB-0164             
1 48063U 21025X   25199.81917299  .00000372  00000+0  98313-3 0  9991
2 48063  87.8953  26.4427 0001871  89.9707 270.1637 13.13468909209826
ONEWEB-0167             
1 48064U 21025Y   25200.07564630 -.00000213  00000+0 -61871-3 0  9995
2 48064  87.8964  26.4222 0002240  70.2342 289.9029 13.13468889209843
ONEWEB-0166             
1 48065U 21025Z   25200.47938062 -.00000052  00000+0 -17744-3 0  9995
2 48065  87.8952  26.2962 0001626  89.9679 270.1636 13.13470764209972
ONEWEB-0151             
1 48066U 21025AA  25200.48106688 -.00000136  00000+0 -40632-3 0  9993
2 48066  87.8952  26.3190 0001925  85.9383 274.1966 13.13471262209926
ONEWEB-0170             
1 48067U 21025AB  25199.80393982  .00000236  00000+0  61056-3 0  9994
2 48067  87.8955  26.4594 0002295  90.2145 269.9247 13.13470164209783
ONEWEB-0168             
1 48068U 21025AC  25200.47429008 -.00000109  00000+0 -33414-3 0  9998
2 48068  87.8956  26.3071 0001804  87.3111 272.8224 13.13472373209882
ONEWEB-0173             
1 48069U 21025AD  25200.46582882 -.00000250  00000+0 -71840-3 0  9990
2 48069  87.8955  26.3171 0001809  75.3659 284.7670 13.13471164210125
