<?xml version="1.0" encoding="UTF-8"?>
<ndm xmlns:xsi="http://www.w3.org/2001/XMLSchema-instance" xsi:noNamespaceSchemaLocation="https://sanaregistry.org/r/ndmxml_unqualified/ndmxml-2.0.0-master-2.0.xsd">
<omm id="CCSDS_OMM_VERS" version="2.0">
<header><CREATION_DATE/><ORIGINATOR/></header><body><segment><metadata><OBJECT_NAME>ONEWEB-0159</OBJECT_NAME><OBJECT_ID>2021-025W</OBJECT_ID><CENTER_NAME>EARTH</CENTER_NAME><REF_FRAME>TEME</REF_FRAME><TIME_SYSTEM>UTC</TIME_SYSTEM><MEAN_ELEMENT_THEORY>SGP4</MEAN_ELEMENT_THEORY></metadata><data><meanElements><EPOCH>2025-07-19T12:33:40.739616</EPOCH><MEAN_MOTION>13.13468708</MEAN_MOTION><ECCENTRICITY>.0001618</ECCENTRICITY><INCLINATION>87.8956</INCLINATION><RA_OF_ASC_NODE>26.2920</RA_OF_ASC_NODE><ARG_OF_PERICENTER>84.7793</ARG_OF_PERICENTER><MEAN_ANOMALY>275.3521</MEAN_ANOMALY></meanElements><tleParameters><EPHEMERIS_TYPE>0</EPHEMERIS_TYPE><CLASSIFICATION_TYPE>U</CLASSIFICATION_TYPE><NORAD_CAT_ID>48062</NORAD_CAT_ID><ELEMENT_SET_NO>999</ELEMENT_SET_NO><REV_AT_EPOCH>20993</REV_AT_EPOCH><BSTAR>.23931E-3</BSTAR><MEAN_MOTION_DOT>.1E-5</MEAN_MOTION_DOT><MEAN_MOTION_DDOT>0</MEAN_MOTION_DDOT></tleParameters></data></segment></body></omm>
<omm id="CCSDS_OMM_VERS" version="2.0">
<header><CREATION_DATE/><ORIGINATOR/></header><body><segment><metadata><OBJECT_NAME>ONEWEB-0164</OBJECT_NAME><OBJECT_ID>2021-025X</OBJECT_ID><CENTER_NAME>EARTH</CENTER_NAME><REF_FRAME>TEME</REF_FRAME><TIME_SYSTEM>UTC</TIME_SYSTEM><MEAN_ELEMENT_THEORY>SGP4</MEAN_ELEMENT_THEORY></metadata><data><meanElements><EPOCH>2025-07-18T19:39:36.546336</EPOCH><MEAN_MOTION>13.13468909</MEAN_MOTION><ECCENTRICITY>.0001871</ECCENTRICITY><INCLINATION>87.8953</INCLINATION><RA_OF_ASC_NODE>26.4427</RA_OF_ASC_NODE><ARG_OF_PERICENTER>89.9707</ARG_OF_PERICENTER><MEAN_ANOMALY>270.1637</MEAN_ANOMALY></meanElements><tleParameters><EPHEMERIS_TYPE>0</EPHEMERIS_TYPE><CLASSIFICATION_TYPE>U</CLASSIFICATION_TYPE><NORAD_CAT_ID>48063</NORAD_CAT_ID><ELEMENT_SET_NO>999</ELEMENT_SET_NO><REV_AT_EPOCH>20982</REV_AT_EPOCH><BSTAR>.98313E-3</BSTAR><MEAN_MOTION_DOT>.372E-5</MEAN_MOTION_DOT><MEAN_MOTION_DDOT>0</MEAN_MOTION_DDOT></tleParameters></data></segment></body></omm>
<omm id="CCSDS_OMM_VERS" version="2.0">
<header><CREATION_DATE/><ORIGINATOR/></header><body><segment><metadata><OBJECT_NAME>ONEWEB-0167</OBJECT_NAME><OBJECT_ID>2021-025Y</OBJECT_ID><CENTER_NAME>EARTH</CENTER_NAME><REF_FRAME>TEME</REF_FRAME><TIME_SYSTEM>UTC</TIME_SYSTEM><MEAN_ELEMENT_THEORY>SGP4</MEAN_ELEMENT_THEORY></metadata><data><meanElements><EPOCH>2025-07-19T01:48:55.840320</EPOCH><MEAN_MOTION>13.13468889</MEAN_MOTION><ECCENTRICITY>.000224</ECCENTRICITY><INCLINATION>87.8964</INCLINATION><RA_OF_ASC_NODE>26.4222</RA_OF_ASC_NODE><ARG_OF_PERICENTER>70.2342</ARG_OF_PERICENTER><MEAN_ANOMALY>289.9029</MEAN_ANOMALY></meanElements><tleParameters><EPHEMERIS_TYPE>0</EPHEMERIS_TYPE><CLASSIFICATION_TYPE>U</CLASSIFICATION_TYPE><NORAD_CAT_ID>48064</NORAD_CAT_ID><ELEMENT_SET_NO>999</ELEMENT_SET_NO><REV_AT_EPOCH>20984</REV_AT_EPOCH><BSTAR>-.61871E-3</BSTAR><MEAN_MOTION_DOT>-.213E-5</MEAN_MOTION_DOT><MEAN_MOTION_DDOT>0</MEAN_MOTION_DDOT></tleParameters></data></segment></body></omm>
<omm id="CCSDS_OMM_VERS" version="2.0">
<header><CREATION_DATE/><ORIGINATOR/></header><body><segment><metadata><OBJECT_NAME>ONEWEB-0166</OBJECT_NAME><OBJECT_ID>2021-025Z</OBJECT_ID><CENTER_NAME>EARTH</CENTER_NAME><REF_FRAME>TEME</REF_FRAME><TIME_SYSTEM>UTC</TIME_SYSTEM><MEAN_ELEMENT_THEORY>SGP4</MEAN_ELEMENT_THEORY></metadata><data><meanElements><EPOCH>2025-07-19T11:30:18.485568</EPOCH><MEAN_MOTION>13.13470764</MEAN_MOTION><ECCENTRICITY>.0001626</ECCENTRICITY><INCLINATION>87.8952</INCLINATION><RA_OF_ASC_NODE>26.2962</RA_OF_ASC_NODE><ARG_OF_PERICENTER>89.9679</ARG_OF_PERICENTER><MEAN_ANOMALY>270.1636</MEAN_ANOMALY></meanElements><tleParameters><EPHEMERIS_TYPE>0</EPHEMERIS_TYPE><CLASSIFICATION_TYPE>U</CLASSIFICATION_TYPE><NORAD_CAT_ID>48065</NORAD_CAT_ID><ELEMENT_SET_NO>999</ELEMENT_SET_NO><REV_AT_EPOCH>20997</REV_AT_EPOCH><BSTAR>-.17744E-3</BSTAR><MEAN_MOTION_DOT>-.52E-6</MEAN_MOTION_DOT><MEAN_MOTION_DDOT>0</MEAN_MOTION_DDOT></tleParameters></data></segment></body></omm>
<omm id="CCSDS_OMM_VERS" version="2.0">
<header><CREATION_DATE/><ORIGINATOR/></header><body><segment><metadata><OBJECT_NAME>ONEWEB-0151</OBJECT_NAME><OBJECT_ID>2021-025AA</OBJECT_ID><CENTER_NAME>EARTH</CENTER_NAME><REF_FRAME>TEME</REF_FRAME><TIME_SYSTEM>UTC</TIME_SYSTEM><MEAN_ELEMENT_THEORY>SGP4</MEAN_ELEMENT_THEORY></metadata><data><meanElements><EPOCH>2025-07-19T11:32:44.178432</EPOCH><MEAN_MOTION>13.13471262</MEAN_MOTION><ECCENTRICITY>.0001925</ECCENTRICITY><INCLINATION>87.8952</INCLINATION><RA_OF_ASC_NODE>26.3190</RA_OF_ASC_NODE><ARG_OF_PERICENTER>85.9383</ARG_OF_PERICENTER><MEAN_ANOMALY>274.1966</MEAN_ANOMALY></meanElements><tleParameters><EPHEMERIS_TYPE>0</EPHEMERIS_TYPE><CLASSIFICATION_TYPE>U</CLASSIFICATION_TYPE><NORAD_CAT_ID>48066</NORAD_CAT_ID><ELEMENT_SET_NO>999</ELEMENT_SET_NO><REV_AT_EPOCH>20992</REV_AT_EPOCH><BSTAR>-.40632E-3</BSTAR><MEAN_MOTION_DOT>-.136E-5</MEAN_MOTION_DOT><MEAN_MOTION_DDOT>0</MEAN_MOTION_DDOT></tleParameters></data></segment></body></omm>
<omm id="CCSDS_OMM_VERS" version="2.0">
<header><CREATION_DATE/><ORIGINATOR/></header><body><segment><metadata><OBJECT_NAME>ONEWEB-0170</OBJECT_NAME><OBJECT_ID>2021-025AB</OBJECT_ID><CENTER_NAME>EARTH</CENTER_NAME><REF_FRAME>TEME</REF_FRAME><TIME_SYSTEM>UTC</TIME_SYSTEM><MEAN_ELEMENT_THEORY>SGP4</MEAN_ELEMENT_THEORY></metadata><data><meanElements><EPOCH>2025-07-18T19:17:40.400448</EPOCH><MEAN_MOTION>13.13470164</MEAN_MOTION><ECCENTRICITY>.0002295</ECCENTRICITY><INCLINATION>87.8955</INCLINATION><RA_OF_ASC_NODE>26.4594</RA_OF_ASC_NODE><ARG_OF_PERICENTER>90.2145</ARG_OF_PERICENTER><MEAN_ANOMALY>269.9247</MEAN_ANOMALY></meanElements><tleParameters><EPHEMERIS_TYPE>0</EPHEMERIS_TYPE><CLASSIFICATION_TYPE>U</CLASSIFICATION_TYPE><NORAD_CAT_ID>48067</NORAD_CAT_ID><ELEMENT_SET_NO>999</ELEMENT_SET_NO><REV_AT_EPOCH>20978</REV_AT_EPOCH><BSTAR>.61056E-3</BSTAR><MEAN_MOTION_DOT>.236E-5</MEAN_MOTION_DOT><MEAN_MOTION_DDOT>0</MEAN_MOTION_DDOT></tleParameters></data></segment></body></omm>
<omm id="CCSDS_OMM_VERS" version="2.0">
<header><CREATION_DATE/><ORIGINATOR/></header><body><segment><metadata><OBJECT_NAME>ONEWEB-0168</OBJECT_NAME><OBJECT_ID>2021-025AC</OBJECT_ID><CENTER_NAME>EARTH</CENTER_NAME><REF_FRAME>TEME</REF_FRAME><TIME_SYSTEM>UTC</TIME_SYSTEM><MEAN_ELEMENT_THEORY>SGP4</MEAN_ELEMENT_THEORY></metadata><data><meanElements><EPOCH>2025-07-19T11:22:58.662912</EPOCH><MEAN_MOTION>13.13472373</MEAN_MOTION><ECCENTRICITY>.0001804</ECCENTRICITY><INCLINATION>87.8956</INCLINATION><RA_OF_ASC_NODE>26.3071</RA_OF_ASC_NODE><ARG_OF_PERICENTER>87.3111</ARG_OF_PERICENTER><MEAN_ANOMALY>272.8224</MEAN_ANOMALY></meanElements><tleParameters><EPHEMERIS_TYPE>0</EPHEMERIS_TYPE><CLASSIFICATION_TYPE>U</CLASSIFICATION_TYPE><NORAD_CAT_ID>48068</NORAD_CAT_ID><ELEMENT_SET_NO>999</ELEMENT_SET_NO><REV_AT_EPOCH>20988</REV_AT_EPOCH><BSTAR>-.33414E-3</BSTAR><MEAN_MOTION_DOT>-.109E-5</MEAN_MOTION_DOT><MEAN_MOTION_DDOT>0</MEAN_MOTION_DDOT></tleParameters></data></segment></body></omm>
<omm id="CCSDS_OMM_VERS" version="2.0">
<header><CREATION_DATE/><ORIGINATOR/></header><body><segment><metadata><OBJECT_NAME>ONEWEB-0173</OBJECT_NAME><OBJECT_ID>2021-025AD</OBJECT_ID><CENTER_NAME>EARTH</CENTER_NAME><REF_FRAME>TEME</REF_FRAME><TIME_SYSTEM>UTC</TIME_SYSTEM><MEAN_ELEMENT_THEORY>SGP4</MEAN_ELEMENT_THEORY></metadata><data><meanElements><EPOCH>2025-07-19T11:10:47.610048</EPOCH><MEAN_MOTION>13.13471164</MEAN_MOTION><ECCENTRICITY>.0001809</ECCENTRICITY><INCLINATION>87.8955</INCLINATION><RA_OF_ASC_NODE>26.3171</RA_OF_ASC_NODE><ARG_OF_PERICENTER>75.3659</ARG_OF_PERICENTER><MEAN_ANOMALY>284.7670</MEAN_ANOMALY></meanElements><tleParameters><EPHEMERIS_TYPE>0</EPHEMERIS_TYPE><CLASSIFICATION_TYPE>U</CLASSIFICATION_TYPE><NORAD_CAT_ID>48069</NORAD_CAT_ID><ELEMENT_SET_NO>999</ELEMENT_SET_NO><REV_AT_EPOCH>21012</REV_AT_EPOCH><BSTAR>-.7184E-3</BSTAR><MEAN_MOTION_DOT>-.25E-5</MEAN_MOTION_DOT><MEAN_MOTION_DDOT>0</MEAN_MOTION_DDOT></tleParameters></data></segment></body></omm>

</ndm>
